STARLINK-37656          
1 69649U 26143A   26201.12547199  .00024591  00000+0  45214-3 0  9998
2 69649  97.2796 245.0524 0000327 203.3173 156.8064 15.49205713  5641
STARLINK-37646          
1 69650U 26143B   26201.83335647 -.02844906  00000+0 -87030-1 0  9995
2 69650  97.2857 245.8999 0002345 113.8133 169.7082 15.37571174  5869
STARLINK-37749          
1 69651U 26143C   26201.83335647 -.02395176  00000+0 -61409-1 0  9998
2 69651  97.2849 245.9324 0001689 101.1407 243.7179 15.42867006  5866
STARLINK-37819          
1 69652U 26143D   26201.83335647 -.00343316  00000+0 -98923-2 0  9998
2 69652  97.2852 245.8575 0002243  79.6986 108.8140 15.37109831  5864
STARLINK-37729          
1 69653U 26143E   26201.83335647 -.02410530  00000+0 -34961-1 0  9995
2 69653  97.2855 246.5092 0001881  86.1545 182.3122 15.59367955  5865
STARLINK-37838          
1 69654U 26143F   26201.83335647 -.01094960  00000+0 -32301-1 0  9996
2 69654  97.2849 245.9570 0001489 102.5637 307.4315 15.37707845  5868
STARLINK-37884          
1 69655U 26143G   26201.83335647 -.00025961  00000+0 -71865-3 0  9991
2 69655  97.2852 245.8309 0001590  99.0718  23.3295 15.36992634  5867
STARLINK-37876          
1 69656U 26143H   26201.83335647 -.00023237  00000+0 -64301-3 0  9993
2 69656  97.2850 245.9100 0001241  94.4473 213.8865 15.36981853  5765
STARLINK-37784          
1 69657U 26143J   26201.39405086  .00024996  00000+0  45957-3 0  9997
2 69657  97.2818 245.4560 0001085  97.5434 262.5940 15.49203292  5620
STARLINK-37851          
1 69658U 26143K   26201.83335647 -.00022857  00000+0 -63254-3 0  9998
2 69658  97.2854 245.9292 0001451  89.5727 271.6957 15.36975763  5759
STARLINK-37229          
1 69659U 26143L   26201.83335647 -.00021121  00000+0 -65336-3 0  9995
2 69659  97.2858 245.8584 0001799  85.0190  98.8165 15.33460936  5801
STARLINK-37556          
1 69660U 26143M   26201.83335647 -.00024015  00000+0 -74341-3 0  9998
2 69660  97.2853 245.8394 0001326  94.3223  44.5395 15.33465191  5804
STARLINK-37867          
1 69661U 26143N   26201.83335647 -.00019931  00000+0 -61691-3 0  9994
2 69661  97.2853 245.8727 0001496  68.8151 145.0800 15.33431326  5765
STARLINK-37852          
1 69662U 26143P   26201.83335647 -.00023249  00000+0 -64379-3 0  9998
2 69662  97.2853 245.8726 0001433  56.0233 163.9050 15.36961158  5766
STARLINK-37554          
1 69663U 26143Q   26201.83335647 -.00020728  00000+0 -57308-3 0  9992
2 69663  97.2856 245.8688 0001524  92.8837 118.9722 15.36985997  5804
STARLINK-37830          
1 69664U 26143R   26201.83335647 -.03769664  00000+0 -12268+0 0  9997
2 69664  97.2853 245.8504 0002072  34.7164 132.6909 15.36170016  5758
STARLINK-37837          
1 69665U 26143S   26200.11535321  .00016108  00000+0  44705-3 0  9997
2 69665  97.2825 244.1348 0000572  75.1318 284.9990 15.36985958  5423
STARLINK-37943          
1 69666U 26143T   26201.83335647 -.00005641  00000+0 -15436-3 0  9998
2 69666  97.2857 245.8873 0000989  59.0348 195.7980 15.36931890  5767
STARLINK-37941          
1 69667U 26143U   26201.83335647 -.00014307  00000+0 -39467-3 0  9998
2 69667  97.2854 245.8951 0001861  61.0988 215.3045 15.36975864  5765
STARLINK-37930          
1 69668U 26143V   26201.83335647 -.00016168  00000+0 -44657-3 0  9993
2 69668  97.2852 245.8983 0001379  76.9760 207.4443 15.36964101  5751
STARLINK-37945          
1 69669U 26143W   26201.83335647 -.02205217  00000+0 -66508-1 0  9998
2 69669  97.2852 245.9238 0001420 106.0839 236.0087 15.37679450  5769
STARLINK-37948          
1 69670U 26143X   26201.86442568  .00036762  00000+0  67413-3 0  9995
2 69670  97.2868 245.8910 0000440  56.3318 303.7975 15.49203168  5696
STARLINK-37949          
1 69671U 26143Y   26201.12952215  .00032562  00000+0  59765-3 0  9995
2 69671  97.2829 245.2028 0000802 172.7451 187.3812 15.49201845  5585
STARLINK-37946          
1 69672U 26143Z   26201.83335647 -.02739067  00000+0 -74467-1 0  9990
2 69672  97.2850 245.9427 0001227  71.9463 308.2359 15.41664850  5766
TJS-26A                 
1 69674U 26144A   26201.28316926 -.00000350  00000+0  00000+0 0  9994
2 69674   6.9413 323.2321 0004025 350.0449 194.2716  1.00271367   275
CZ-7A R/B               
1 69675U 26144B   26201.33732307  .01460636  28595-4  12801-2 0  9992
2 69675  19.4372 312.5082 7007479 201.3157 101.8557  2.71649370   708
STARLINK-38005          
1 69677U 26145A   26200.56011397  .00094165  00000+0  62491-3 0  9994
2 69677  97.2838  47.6078 0001134  83.5509 276.5886 15.75203109  3867
STARLINK-38009          
1 69678U 26145B   26201.83335647 -.02616690  00000+0 -24286-1 0  9998
2 69678  97.2846  48.9454 0001438  77.4922 301.7995 15.70812274  5337
STARLINK-37998          
1 69679U 26145C   26201.82642769  .00169227  00000+0  11124-2 0  9997
2 69679  97.2856  48.9473 0000957 271.2179  88.8976 15.75204538  4067
STARLINK-37994          
1 69680U 26145D   26201.83335647 -.02479783  00000+0 -24268-1 0  9991
2 69680  97.2844  48.9451 0001372  79.1850 300.7980 15.69354048  5332
