OBJECT_NAME,OBJECT_ID,EPOCH,MEAN_MOTION,ECCENTRICITY,INCLINATION,RA_OF_ASC_NODE,ARG_OF_PERICENTER,MEAN_ANOMALY,EPHEMERIS_TYPE,CLASSIFICATION_TYPE,NORAD_CAT_ID,ELEMENT_SET_NO,REV_AT_EPOCH,BSTAR,MEAN_MOTION_DOT,MEAN_MOTION_DDOT
STARLINK-37656,2026-143A,2026-07-20T03:00:40.779936,15.49205713,.00003273,97.2796,245.0524,203.3173,156.8064,0,U,69649,999,564,.4521353E-3,.24591E-3,0
STARLINK-37646,2026-143B,2026-07-20T20:00:01.999008,15.37571174,.0002345,97.2857,245.8999,113.8133,169.7082,0,U,69650,999,586,-.8703E-1,-.2844906E-1,0
STARLINK-37749,2026-143C,2026-07-20T20:00:01.999008,15.42867006,.0001689,97.2849,245.9324,101.1407,243.7179,0,U,69651,999,586,-.61409E-1,-.2395176E-1,0
STARLINK-37819,2026-143D,2026-07-20T20:00:01.999008,15.37109831,.0002243,97.2852,245.8575,79.6986,108.8140,0,U,69652,999,586,-.98923E-2,-.343316E-2,0
STARLINK-37729,2026-143E,2026-07-20T20:00:01.999008,15.59367955,.0001881,97.2855,246.5092,86.1545,182.3122,0,U,69653,999,586,-.34961E-1,-.241053E-1,0
STARLINK-37838,2026-143F,2026-07-20T20:00:01.999008,15.37707845,.0001489,97.2849,245.9570,102.5637,307.4315,0,U,69654,999,586,-.32301E-1,-.109496E-1,0
STARLINK-37884,2026-143G,2026-07-20T20:00:01.999008,15.36992634,.000159,97.2852,245.8309,99.0718,23.3295,0,U,69655,999,586,-.71865E-3,-.25961E-3,0
STARLINK-37876,2026-143H,2026-07-20T20:00:01.999008,15.36981853,.0001241,97.2850,245.9100,94.4473,213.8865,0,U,69656,999,576,-.64301E-3,-.23237E-3,0
STARLINK-37784,2026-143J,2026-07-20T09:27:25.994304,15.49203292,.00010855,97.2818,245.4560,97.5434,262.5940,0,U,69657,999,562,.45957106E-3,.24996E-3,0
STARLINK-37851,2026-143K,2026-07-20T20:00:01.999008,15.36975763,.0001451,97.2854,245.9292,89.5727,271.6957,0,U,69658,999,575,-.63254E-3,-.22857E-3,0
STARLINK-37229,2026-143L,2026-07-20T20:00:01.999008,15.33460936,.0001799,97.2858,245.8584,85.0190,98.8165,0,U,69659,999,580,-.65336E-3,-.21121E-3,0
STARLINK-37556,2026-143M,2026-07-20T20:00:01.999008,15.33465191,.0001326,97.2853,245.8394,94.3223,44.5395,0,U,69660,999,580,-.74341E-3,-.24015E-3,0
STARLINK-37867,2026-143N,2026-07-20T20:00:01.999008,15.33431326,.0001496,97.2853,245.8727,68.8151,145.0800,0,U,69661,999,576,-.61691E-3,-.19931E-3,0
STARLINK-37852,2026-143P,2026-07-20T20:00:01.999008,15.36961158,.0001433,97.2853,245.8726,56.0233,163.9050,0,U,69662,999,576,-.64379E-3,-.23249E-3,0
STARLINK-37554,2026-143Q,2026-07-20T20:00:01.999008,15.36985997,.0001524,97.2856,245.8688,92.8837,118.9722,0,U,69663,999,580,-.57308E-3,-.20728E-3,0
STARLINK-37830,2026-143R,2026-07-20T20:00:01.999008,15.36170016,.0002072,97.2853,245.8504,34.7164,132.6909,0,U,69664,999,575,-.12268E+0,-.3769664E-1,0
STARLINK-37837,2026-143S,2026-07-19T02:46:06.517344,15.36985958,.00005727,97.2825,244.1348,75.1318,284.9990,0,U,69665,999,542,.44704564E-3,.16108E-3,0
STARLINK-37943,2026-143T,2026-07-20T20:00:01.999008,15.36931890,.0000989,97.2857,245.8873,59.0348,195.7980,0,U,69666,999,576,-.15436E-3,-.5641E-4,0
STARLINK-37941,2026-143U,2026-07-20T20:00:01.999008,15.36975864,.0001861,97.2854,245.8951,61.0988,215.3045,0,U,69667,999,576,-.39467E-3,-.14307E-3,0
STARLINK-37930,2026-143V,2026-07-20T20:00:01.999008,15.36964101,.0001379,97.2852,245.8983,76.9760,207.4443,0,U,69668,999,575,-.44657E-3,-.16168E-3,0
STARLINK-37945,2026-143W,2026-07-20T20:00:01.999008,15.37679450,.000142,97.2852,245.9238,106.0839,236.0087,0,U,69669,999,576,-.66508E-1,-.2205217E-1,0
STARLINK-37948,2026-143X,2026-07-20T20:44:46.378752,15.49203168,.000044,97.2868,245.8910,56.3318,303.7975,0,U,69670,999,569,.67413E-3,.36762E-3,0
STARLINK-37949,2026-143Y,2026-07-20T03:06:30.713760,15.49201845,.00008025,97.2829,245.2028,172.7451,187.3812,0,U,69671,999,558,.59764716E-3,.32562E-3,0
STARLINK-37946,2026-143Z,2026-07-20T20:00:01.999008,15.41664850,.0001227,97.2850,245.9427,71.9463,308.2359,0,U,69672,999,576,-.74467E-1,-.2739067E-1,0
TJS-26A,2026-144A,2026-07-20T06:47:45.824064,1.00271367,.00040251,6.9413,323.2321,350.0449,194.2716,0,U,69674,999,27,0,-.35E-5,0
CZ-7A R/B,2026-144B,2026-07-20T08:05:44.713248,2.71649370,.7007479,19.4372,312.5082,201.3157,101.8557,0,U,69675,999,70,.12801E-2,.1460636E-1,.28595E-4
STARLINK-38005,2026-145A,2026-07-19T13:26:33.847008,15.75203109,.0001134,97.2838,47.6078,83.5509,276.5886,0,U,69677,999,386,.62491E-3,.94165E-3,0
STARLINK-38009,2026-145B,2026-07-20T20:00:01.999008,15.70812274,.0001438,97.2846,48.9454,77.4922,301.7995,0,U,69678,999,533,-.24286E-1,-.261669E-1,0
STARLINK-37998,2026-145C,2026-07-20T19:50:03.352416,15.75204538,.0000957,97.2856,48.9473,271.2179,88.8976,0,U,69679,999,406,.11124E-2,.169227E-2,0
STARLINK-37994,2026-145D,2026-07-20T20:00:01.999008,15.69354048,.0001372,97.2844,48.9451,79.1850,300.7980,0,U,69680,999,533,-.24268E-1,-.2479783E-1,0
